{"type": "FeatureCollection", "features": [ {"type": "Feature", "properties": {"norad_id": 66777, "name": "TRANSPORTER-15DR", "group": "last-30-days", "lat": 10.206551121932161, "lon": 71.13831428059564, "alt_km": 510.5892358746323, "timestamp": "2025-12-26T21:25:51.733770+00:00", "meta": {"OBJECT_NAME": "TRANSPORTER-15DR", "OBJECT_ID": "2025-276DR", "EPOCH": "2025-12-26T15:03:42.886944", "MEAN_MOTION": 15.19008561, "ECCENTRICITY": 0.00034709, "INCLINATION": 97.446, "RA_OF_ASC_NODE": 72.2261, "ARG_OF_PERICENTER": 104.0843, "MEAN_ANOMALY": 256.0778, "EPHEMERIS_TYPE": 0, "CLASSIFICATION_TYPE": "U", "NORAD_CAT_ID": 66777, "ELEMENT_SET_NO": 999, "REV_AT_EPOCH": 423, "BSTAR": 0.00066987843, "MEAN_MOTION_DOT": 0.00013971, "MEAN_MOTION_DDOT": 0}, "tle": {"line1": "1 66777U 25276DR  25360.62757971  .00013971  00000+0  66988-3 0  9995", "line2": "2 66777  97.4460  72.2261 0003470 104.0843 256.0778 15.19008561  4239"}}, "geometry": {"type": "Point", "coordinates": [71.13831428059564, 10.206551121932161]}}, {"type": "Feature", "properties": {"norad_id": 66778, "name": "TRANSPORTER-15DS", "group": "last-30-days", "lat": -2.607244332750629, "lon": -107.95083824732404, "alt_km": 521.6939705777149, "timestamp": "2025-12-26T21:25:51.733780+00:00", "meta": {"OBJECT_NAME": "TRANSPORTER-15DS", "OBJECT_ID": "2025-276DS", "EPOCH": "2025-12-18T19:26:21.991200", "MEAN_MOTION": 15.16535337, "ECCENTRICITY": 0.00032319, "INCLINATION": 97.4427, "RA_OF_ASC_NODE": 64.4586, "ARG_OF_PERICENTER": 41.3734, "MEAN_ANOMALY": 318.7744, "EPHEMERIS_TYPE": 0, "CLASSIFICATION_TYPE": "U", "NORAD_CAT_ID": 66778, "ELEMENT_SET_NO": 999, "REV_AT_EPOCH": 304, "BSTAR": 0.00025483693, "MEAN_MOTION_DOT": 4.904e-05, "MEAN_MOTION_DDOT": 0}, "tle": {"line1": "1 66778U 25276DS  25352.80997675  .00004904  00000+0  25484-3 0  9996", "line2": "2 66778  97.4427  64.4586 0003231  41.3734 318.7744 15.16535337  3043"}}, "geometry": {"type": "Point", "coordinates": [-107.95083824732404, -2.607244332750629]}}, {"type": "Feature", "properties": {"norad_id": 66791, "name": "STARLINK-35867", "group": "last-30-days", "lat": -42.957255033315036, "lon": 75.3451570233695, "alt_km": 446.58597475513034, "timestamp": "2025-12-26T21:25:51.733794+00:00", "meta": {"OBJECT_NAME": "STARLINK-35867", "OBJECT_ID": "2025-278A", "EPOCH": "2025-12-26T14:00:04.000032", "MEAN_MOTION": 15.40674376, "ECCENTRICITY": 0.00013971, "INCLINATION": 43.0002, "RA_OF_ASC_NODE": 169.4117, "ARG_OF_PERICENTER": 289.562, "MEAN_ANOMALY": 59.6609, "EPHEMERIS_TYPE": 0, "CLASSIFICATION_TYPE": "U", "NORAD_CAT_ID": 66791, "ELEMENT_SET_NO": 999, "REV_AT_EPOCH": 518, "BSTAR": 0.00040101499, "MEAN_MOTION_DOT": 0.0001647, "MEAN_MOTION_DDOT": 0}, "tle": {"line1": "1 66791U 25278A   25360.58337963  .00016470  00000+0  40101-3 0  9999", "line2": "2 66791  43.0002 169.4117 0001397 289.5620  59.6609 15.40674376  5183"}}, "geometry": {"type": "Point", "coordinates": [75.3451570233695, -42.957255033315036]}}, {"type": "Feature", "properties": {"norad_id": 66792, "name": "STARLINK-35990", "group": "last-30-days", "lat": -13.94773729830538, "lon": 151.99749601407018, "alt_km": 416.2423919611392, "timestamp": "2025-12-26T21:25:51.733805+00:00", "meta": {"OBJECT_NAME": "STARLINK-35990", "OBJECT_ID": "2025-278B", "EPOCH": "2025-12-26T14:00:04.000032", "MEAN_MOTION": 15.50534176, "ECCENTRICITY": 0.00015892, "INCLINATION": 42.9999, "RA_OF_ASC_NODE": 169.2662, "ARG_OF_PERICENTER": 260.2402, "MEAN_ANOMALY": 148.9823, "EPHEMERIS_TYPE": 0, "CLASSIFICATION_TYPE": "U", "NORAD_CAT_ID": 66792, "ELEMENT_SET_NO": 999, "REV_AT_EPOCH": 518, "BSTAR": 0.00063220469, "MEAN_MOTION_DOT": 0.00036862, "MEAN_MOTION_DDOT": 0}, "tle": {"line1": "1 66792U 25278B   25360.58337963  .00036862  00000+0  63220-3 0  9994", "line2": "2 66792  42.9999 169.2662 0001589 260.2402 148.9823 15.50534176  5181"}}, "geometry": {"type": "Point", "coordinates": [151.99749601407018, -13.94773729830538]}}, {"type": "Feature", "properties": {"norad_id": 66793, "name": "STARLINK-36051", "group": "last-30-days", "lat": -11.412306746007566, "lon": 154.9353424417051, "alt_km": 416.0059661824089, "timestamp": "2025-12-26T21:25:51.733815+00:00", "meta": {"OBJECT_NAME": "STARLINK-36051", "OBJECT_ID": "2025-278C", "EPOCH": "2025-12-26T14:00:04.000032", "MEAN_MOTION": 15.50520677, "ECCENTRICITY": 0.00015028, "INCLINATION": 42.9998, "RA_OF_ASC_NODE": 169.2573, "ARG_OF_PERICENTER": 260.7336, "MEAN_ANOMALY": 152.3234, "EPHEMERIS_TYPE": 0, "CLASSIFICATION_TYPE": "U", "NORAD_CAT_ID": 66793, "ELEMENT_SET_NO": 999, "REV_AT_EPOCH": 508, "BSTAR": 0.0014185212, "MEAN_MOTION_DOT": 0.00083596, "MEAN_MOTION_DDOT": 0}, "tle": {"line1": "1 66793U 25278C   25360.58337963  .00083596  00000+0  14185-2 0  9996", "line2": "2 66793  42.9998 169.2573 0001502 260.7336 152.3234 15.50520677  5083"}}, "geometry": {"type": "Point", "coordinates": [154.9353424417051, -11.412306746007566]}}, {"type": "Feature", "properties": {"norad_id": 66794, "name": "STARLINK-36062", "group": "last-30-days", "lat": -12.625581860945355, "lon": 153.53902339057422, "alt_km": 415.5764116421042, "timestamp": "2025-12-26T21:25:51.733825+00:00", "meta": {"OBJECT_NAME": "STARLINK-36062", "OBJECT_ID": "2025-278D", "EPOCH": "2025-12-26T12:14:09.237696", "MEAN_MOTION": 15.50597285, "ECCENTRICITY": 0.00019947, "INCLINATION": 42.999, "RA_OF_ASC_NODE": 169.6901, "ARG_OF_PERICENTER": 269.7082, "MEAN_ANOMALY": 90.355, "EPHEMERIS_TYPE": 0, "CLASSIFICATION_TYPE": "U", "NORAD_CAT_ID": 66794, "ELEMENT_SET_NO": 999, "REV_AT_EPOCH": 399, "BSTAR": 0.0013293694, "MEAN_MOTION_DOT": 0.00078485, "MEAN_MOTION_DDOT": 0}, "tle": {"line1": "1 66794U 25278D   25360.50982914  .00078485  00000+0  13294-2 0  9992", "line2": "2 66794  42.9990 169.6901 0001994 269.7082  90.3550 15.50597285  3996"}}, "geometry": {"type": "Point", "coordinates": [153.53902339057422, -12.625581860945355]}}, {"type": "Feature", "properties": {"norad_id": 66795, "name": "STARLINK-36047", "group": "last-30-days", "lat": -27.568329020520444, "lon": 133.43771166621238, "alt_km": 441.44148449798104, "timestamp": "2025-12-26T21:25:51.733835+00:00", "meta": {"OBJECT_NAME": "STARLINK-36047", "OBJECT_ID": "2025-278E", "EPOCH": "2025-12-26T14:00:04.000032", "MEAN_MOTION": 15.43584603, "ECCENTRICITY": 0.00018343, "INCLINATION": 43.0003, "RA_OF_ASC_NODE": 169.3018, "ARG_OF_PERICENTER": 251.2027, "MEAN_ANOMALY": 144.452, "EPHEMERIS_TYPE": 0, "CLASSIFICATION_TYPE": "U", "NORAD_CAT_ID": 66795, "ELEMENT_SET_NO": 999, "REV_AT_EPOCH": 508, "BSTAR": -0.046124122, "MEAN_MOTION_DOT": -0.01903116, "MEAN_MOTION_DDOT": 0}, "tle": {"line1": "1 66795U 25278E   25360.58337963 -.01903116  00000+0 -46124-1 0  9997", "line2": "2 66795  43.0003 169.3018 0001834 251.2027 144.4520 15.43584603  5080"}}, "geometry": {"type": "Point", "coordinates": [133.43771166621238, -27.568329020520444]}}, {"type": "Feature", "properties": {"norad_id": 66796, "name": "STARLINK-35964", "group": "last-30-days", "lat": 13.21554990649772, "lon": -30.30559790425121, "alt_km": 324.21599409567625, "timestamp": "2025-12-26T21:25:51.733846+00:00", "meta": {"OBJECT_NAME": "STARLINK-35964", "OBJECT_ID": "2025-278F", "EPOCH": "2025-12-26T11:39:39.747744", "MEAN_MOTION": 15.81140199, "ECCENTRICITY": 0.00027171, "INCLINATION": 42.9916, "RA_OF_ASC_NODE": 166.7893, "ARG_OF_PERICENTER": 253.8891, "MEAN_ANOMALY": 106.1681, "EPHEMERIS_TYPE": 0, "CLASSIFICATION_TYPE": "U", "NORAD_CAT_ID": 66796, "ELEMENT_SET_NO": 999, "REV_AT_EPOCH": 402, "BSTAR": 0.0023432006, "MEAN_MOTION_DOT": 0.00501754, "MEAN_MOTION_DDOT": 0}, "tle": {"line1": "1 66796U 25278F   25360.48587671  .00501754  00000+0  23432-2 0  9997", "line2": "2 66796  42.9916 166.7893 0002717 253.8891 106.1681 15.81140199  4028"}}, "geometry": {"type": "Point", "coordinates": [-30.30559790425121, 13.21554990649772]}}, {"type": "Feature", "properties": {"norad_id": 66797, "name": "STARLINK-36099", "group": "last-30-days", "lat": -7.5566649170103295, "lon": 159.24653365069267, "alt_km": 415.70717222601706, "timestamp": "2025-12-26T21:25:51.733856+00:00", "meta": {"OBJECT_NAME": "STARLINK-36099", "OBJECT_ID": "2025-278G", "EPOCH": "2025-12-26T14:00:04.000032", "MEAN_MOTION": 15.50534013, "ECCENTRICITY": 0.00015726, "INCLINATION": 42.9999, "RA_OF_ASC_NODE": 169.2422, "ARG_OF_PERICENTER": 261.7908, "MEAN_ANOMALY": 157.0183, "EPHEMERIS_TYPE": 0, "CLASSIFICATION_TYPE": "U", "NORAD_CAT_ID": 66797, "ELEMENT_SET_NO": 999, "REV_AT_EPOCH": 524, "BSTAR": 0.0006205025, "MEAN_MOTION_DOT": 0.0003617, "MEAN_MOTION_DDOT": 0}, "tle": {"line1": "1 66797U 25278G   25360.58337963  .00036170  00000+0  62050-3 0  9991", "line2": "2 66797  42.9999 169.2422 0001572 261.7908 157.0183 15.50534013  5246"}}, "geometry": {"type": "Point", "coordinates": [159.24653365069267, -7.5566649170103295]}}, {"type": "Feature", "properties": {"norad_id": 66798, "name": "STARLINK-36041", "group": "last-30-days", "lat": -6.263009129455224, "lon": 160.66226175242377, "alt_km": 415.5828419586269, "timestamp": "2025-12-26T21:25:51.733870+00:00", "meta": {"OBJECT_NAME": "STARLINK-36041", "OBJECT_ID": "2025-278H", "EPOCH": "2025-12-26T14:00:04.000032", "MEAN_MOTION": 15.50535813, "ECCENTRICITY": 0.00015824, "INCLINATION": 42.9999, "RA_OF_ASC_NODE": 169.2371, "ARG_OF_PERICENTER": 261.9969, "MEAN_ANOMALY": 158.7242, "EPHEMERIS_TYPE": 0, "CLASSIFICATION_TYPE": "U", "NORAD_CAT_ID": 66798, "ELEMENT_SET_NO": 999, "REV_AT_EPOCH": 502, "BSTAR": 0.00062238383, "MEAN_MOTION_DOT": 0.00036284, "MEAN_MOTION_DDOT": 0}, "tle": {"line1": "1 66798U 25278H   25360.58337963  .00036284  00000+0  62238-3 0  9996", "line2": "2 66798  42.9999 169.2371 0001582 261.9969 158.7242 15.50535813  5029"}}, "geometry": {"type": "Point", "coordinates": [160.66226175242377, -6.263009129455224]}}]}